{"type":"FeatureCollection","features":[{"type":"Feature","properties":{"id":"792","name":"Turkey"},"geometry":{"type":"MultiPolygon","coordinates":[[[[25.969,40.137],[25.738,40.106],[25.67,40.135],[25.742,40.196],[25.875,40.234],[25.918,40.238],[25.976,40.179],[25.969,40.137]]],[[[41.51,41.517],[41.575,41.498],[41.701,41.472],[41.78,41.441],[41.823,41.432],[41.924,41.496],[42.079,41.495],[42.212,41.486],[42.281,41.475],[42.363,41.455],[42.468,41.439],[42.507,41.47],[42.569,41.559],[42.59,41.571],[42.608,41.58],[42.684,41.587],[42.756,41.58],[42.788,41.564],[42.821,41.493],[42.907,41.467],[43.058,41.352],[43.148,41.307],[43.17,41.288],[43.141,41.265],[43.152,41.236],[43.206,41.199],[43.278,41.186],[43.361,41.191],[43.404,41.177],[43.433,41.156],[43.44,41.127],[43.44,41.107],[43.454,41.064],[43.519,41.005],[43.591,40.969],[43.631,40.929],[43.695,40.795],[43.724,40.72],[43.713,40.647],[43.667,40.574],[43.569,40.482],[43.595,40.444],[43.616,40.394],[43.609,40.356],[43.677,40.239],[43.71,40.167],[43.685,40.149],[43.667,40.127],[43.793,40.071],[43.94,40.022],[44.005,40.014],[44.178,40.036],[44.289,40.04],[44.401,39.996],[44.559,39.887],[44.732,39.746],[44.768,39.703],[44.783,39.684],[44.819,39.651],[44.783,39.651],[44.725,39.682],[44.588,39.769],[44.516,39.731],[44.455,39.667],[44.39,39.422],[44.336,39.396],[44.239,39.397],[44.124,39.404],[44.045,39.392],[44.023,39.377],[44.034,39.351],[44.059,39.311],[44.073,39.26],[44.081,39.219],[44.12,39.18],[44.178,39.144],[44.181,39.108],[44.171,39.055],[44.16,39.017],[44.145,38.995],[44.171,38.934],[44.232,38.863],[44.271,38.837],[44.257,38.701],[44.279,38.641],[44.297,38.557],[44.289,38.42],[44.3,38.387],[44.318,38.375],[44.376,38.37],[44.43,38.358],[44.451,38.335],[44.448,38.318],[44.379,38.255],[44.372,38.21],[44.351,38.146],[44.329,38.109],[44.268,38.038],[44.228,37.967],[44.21,37.908],[44.225,37.88],[44.336,37.872],[44.397,37.83],[44.559,37.745],[44.588,37.71],[44.545,37.658],[44.545,37.637],[44.567,37.609],[44.577,37.561],[44.574,37.507],[44.574,37.436],[44.603,37.424],[44.714,37.358],[44.793,37.29],[44.797,37.269],[44.757,37.217],[44.768,37.156],[44.765,37.142],[44.732,37.165],[44.671,37.174],[44.606,37.175],[44.567,37.158],[44.495,37.111],[44.401,37.059],[44.325,37.01],[44.282,36.978],[44.246,36.983],[44.217,37.012],[44.203,37.052],[44.207,37.203],[44.192,37.25],[44.156,37.283],[44.113,37.302],[44.066,37.313],[44.012,37.314],[43.94,37.269],[43.836,37.224],[43.677,37.227],[43.569,37.236],[43.515,37.245],[43.307,37.314],[43.263,37.316],[43.184,37.346],[43.094,37.368],[42.936,37.325],[42.867,37.335],[42.774,37.372],[42.741,37.361],[42.637,37.25],[42.457,37.129],[42.36,37.109],[42.313,37.229],[42.27,37.276],[42.248,37.283],[42.201,37.297],[42.169,37.288],[42.061,37.207],[41.888,37.156],[41.744,37.127],[41.514,37.089],[41.341,37.071],[41.265,37.07],[41.103,37.085],[40.959,37.109],[40.815,37.108],[40.707,37.097],[40.452,37.009],[40.016,36.826],[39.685,36.738],[39.501,36.701],[39.357,36.682],[39.109,36.681],[38.907,36.695],[38.767,36.693],[38.688,36.715],[38.58,36.788],[38.443,36.863],[38.385,36.879],[38.306,36.894],[38.191,36.901],[37.907,36.795],[37.817,36.766],[37.719,36.743],[37.525,36.679],[37.435,36.642],[37.327,36.646],[37.187,36.656],[37.068,36.653],[36.985,36.703],[36.942,36.759],[36.776,36.793],[36.657,36.802],[36.629,36.778],[36.596,36.701],[36.546,36.507],[36.539,36.457],[36.643,36.264],[36.636,36.234],[36.564,36.224],[36.477,36.221],[36.42,36.203],[36.377,36.172],[36.348,36.004],[36.251,35.972],[36.2,35.938],[36.153,35.833],[36.128,35.832],[35.966,35.91],[35.894,35.917],[35.955,35.998],[35.887,36.16],[35.811,36.309],[35.883,36.406],[36.031,36.523],[36.189,36.66],[36.189,36.743],[36.179,36.807],[36.135,36.851],[36.049,36.91],[35.905,36.847],[35.801,36.778],[35.736,36.764],[35.66,36.724],[35.624,36.653],[35.538,36.597],[35.394,36.575],[35.178,36.636],[34.944,36.726],[34.811,36.799],[34.703,36.816],[34.602,36.785],[34.299,36.604],[34.022,36.34],[33.954,36.295],[33.695,36.182],[33.522,36.144],[33.443,36.153],[33.101,36.103],[32.928,36.096],[32.795,36.037],[32.535,36.101],[32.377,36.184],[32.283,36.267],[32.132,36.45],[32.021,36.535],[31.779,36.613],[31.351,36.8],[31.239,36.821],[30.951,36.849],[30.645,36.866],[30.581,36.797],[30.559,36.526],[30.505,36.451],[30.483,36.311],[30.447,36.269],[30.386,36.243],[30.296,36.288],[30.231,36.307],[30.084,36.25],[29.788,36.169],[29.688,36.156],[29.349,36.259],[29.223,36.325],[29.144,36.398],[29.115,36.521],[29.065,36.59],[29.058,36.639],[29.04,36.693],[28.971,36.715],[28.896,36.674],[28.816,36.675],[28.719,36.701],[28.485,36.804],[28.305,36.813],[28.197,36.686],[28.111,36.646],[28.021,36.634],[28.014,36.67],[28.086,36.752],[27.805,36.736],[27.657,36.675],[27.542,36.684],[27.456,36.712],[27.466,36.747],[27.556,36.759],[27.632,36.787],[27.934,36.809],[28.006,36.832],[28.082,36.92],[28.226,36.997],[28.244,37.03],[28.132,37.03],[27.668,37.007],[27.348,37.019],[27.312,36.983],[27.261,36.976],[27.25,37.08],[27.301,37.127],[27.369,37.122],[27.535,37.163],[27.52,37.248],[27.402,37.307],[27.376,37.34],[27.29,37.349],[27.218,37.389],[27.204,37.491],[27.15,37.604],[27.067,37.658],[27.078,37.688],[27.225,37.726],[27.254,37.882],[27.232,37.979],[27.16,37.986],[26.944,38.063],[26.88,38.056],[26.808,38.139],[26.682,38.198],[26.62,38.177],[26.581,38.149],[26.523,38.161],[26.43,38.214],[26.332,38.243],[26.289,38.278],[26.343,38.37],[26.415,38.368],[26.43,38.441],[26.372,38.562],[26.379,38.625],[26.44,38.641],[26.512,38.63],[26.588,38.557],[26.61,38.486],[26.595,38.418],[26.642,38.352],[26.674,38.335],[26.696,38.406],[26.728,38.418],[26.772,38.389],[26.862,38.373],[27.099,38.415],[27.142,38.451],[26.97,38.448],[26.908,38.481],[26.836,38.557],[26.797,38.627],[26.786,38.66],[26.764,38.71],[26.79,38.736],[26.908,38.776],[27.013,38.887],[26.97,38.918],[26.919,38.934],[26.865,38.924],[26.815,38.962],[26.808,39.014],[26.851,39.057],[26.854,39.116],[26.718,39.26],[26.682,39.292],[26.71,39.34],[26.815,39.418],[26.912,39.517],[26.898,39.55],[26.826,39.562],[26.484,39.521],[26.35,39.484],[26.113,39.467],[26.095,39.521],[26.102,39.569],[26.156,39.656],[26.149,39.873],[26.181,39.989],[26.314,40.024],[26.476,40.198],[26.739,40.401],[27.013,40.396],[27.121,40.453],[27.283,40.456],[27.315,40.415],[27.333,40.377],[27.477,40.319],[27.729,40.328],[27.79,40.351],[27.848,40.382],[27.733,40.481],[27.769,40.51],[27.873,40.514],[27.988,40.489],[27.996,40.467],[27.963,40.436],[27.927,40.38],[27.963,40.37],[28.287,40.403],[28.629,40.377],[28.737,40.39],[29.007,40.39],[29.054,40.423],[28.975,40.467],[28.896,40.482],[28.842,40.503],[28.788,40.535],[28.957,40.63],[29.054,40.649],[29.508,40.708],[29.846,40.738],[29.85,40.76],[29.799,40.76],[29.364,40.809],[29.259,40.847],[29.115,40.937],[29.083,40.963],[29.047,41.007],[29.068,41.102],[29.094,41.177],[29.148,41.22],[29.32,41.227],[29.918,41.151],[30.347,41.198],[30.811,41.085],[31.254,41.107],[31.347,41.158],[31.459,41.319],[32.085,41.59],[32.305,41.729],[32.543,41.807],[32.946,41.892],[33.284,42.005],[33.381,42.017],[34.191,41.963],[34.749,41.956],[35.005,42.064],[35.156,42.028],[35.142,41.989],[35.113,41.956],[35.124,41.89],[35.21,41.795],[35.297,41.729],[35.559,41.633],[35.919,41.713],[35.977,41.705],[36.053,41.682],[36.179,41.427],[36.279,41.337],[36.405,41.274],[36.51,41.262],[36.585,41.326],[36.647,41.352],[36.776,41.363],[36.992,41.276],[37.068,41.184],[37.431,41.114],[37.766,41.08],[37.91,41.002],[38.382,40.925],[38.558,40.937],[38.853,41.017],[39.426,41.106],[39.807,40.982],[39.912,40.967],[40.002,40.977],[40.128,40.943],[40.265,40.962],[40.686,41.107],[40.819,41.191],[40.959,41.212],[41.082,41.262],[41.413,41.423],[41.51,41.517]]],[[[28.014,41.969],[27.988,41.856],[28.05,41.729],[28.197,41.555],[28.345,41.467],[28.946,41.248],[29.058,41.229],[29.032,41.14],[28.996,41.061],[28.957,41.009],[28.78,40.974],[28.294,41.071],[28.172,41.081],[28.086,41.061],[27.924,40.991],[27.747,41.014],[27.499,40.974],[27.43,40.84],[27.258,40.687],[26.973,40.564],[26.772,40.498],[26.469,40.262],[26.329,40.123],[26.271,40.097],[26.203,40.075],[26.224,40.142],[26.26,40.203],[26.253,40.248],[26.253,40.314],[26.354,40.39],[26.448,40.444],[26.721,40.545],[26.793,40.627],[26.577,40.625],[26.361,40.606],[26.224,40.618],[26.106,40.611],[26.066,40.684],[26.037,40.727],[26.07,40.739],[26.109,40.75],[26.178,40.826],[26.242,40.884],[26.332,40.955],[26.354,40.996],[26.354,41.036],[26.332,41.064],[26.329,41.097],[26.325,41.144],[26.332,41.239],[26.538,41.344],[26.602,41.354],[26.624,41.403],[26.61,41.512],[26.581,41.6],[26.545,41.607],[26.494,41.633],[26.462,41.663],[26.412,41.696],[26.322,41.717],[26.318,41.745],[26.329,41.772],[26.361,41.802],[26.512,41.826],[26.53,41.847],[26.548,41.897],[26.581,41.948],[26.617,41.965],[26.678,41.963],[26.8,41.975],[26.883,41.991],[26.97,42.028],[27.013,42.059],[27.193,42.078],[27.243,42.094],[27.294,42.08],[27.362,42.026],[27.474,41.948],[27.535,41.922],[27.582,41.932],[27.661,41.962],[27.74,41.962],[27.801,41.956],[27.834,41.981],[27.88,41.986],[28.014,41.969]]]]}}]}